{"type": "FeatureCollection", "features": [ {"type": "Feature", "properties": {"norad_id": 37280, "name": "COSMOS 2251 DEB", "group": "cosmos-2251-debris", "lat": 53.384285830414434, "lon": 80.48025412894069, "alt_km": 882.0938880210579, "timestamp": "2025-12-12T07:43:20.913467+00:00", "meta": {"OBJECT_NAME": "COSMOS 2251 DEB", "OBJECT_ID": "1993-036BHU", "EPOCH": "2025-12-11T21:18:02.152224", "MEAN_MOTION": 14.19307625, "ECCENTRICITY": 0.01311292, "INCLINATION": 74.0314, "RA_OF_ASC_NODE": 58.592, "ARG_OF_PERICENTER": 187.3743, "MEAN_ANOMALY": 172.5477, "EPHEMERIS_TYPE": 0, "CLASSIFICATION_TYPE": "U", "NORAD_CAT_ID": 37280, "ELEMENT_SET_NO": 999, "REV_AT_EPOCH": 57311, "BSTAR": 0.0026008318, "MEAN_MOTION_DOT": 5.928e-05, "MEAN_MOTION_DDOT": 0}, "tle": {"line1": "1 37280U 93036BHU 25345.88752491  .00005928  00000+0  26008-2 0  9995", "line2": "2 37280  74.0314  58.5920 0131129 187.3743 172.5477 14.19307625573118"}}, "geometry": {"type": "Point", "coordinates": [80.48025412894069, 53.384285830414434]}}, {"type": "Feature", "properties": {"norad_id": 37284, "name": "COSMOS 2251 DEB", "group": "cosmos-2251-debris", "lat": 63.821044769887784, "lon": -166.85933289285552, "alt_km": 899.6133164331422, "timestamp": "2025-12-12T07:43:20.913478+00:00", "meta": {"OBJECT_NAME": "COSMOS 2251 DEB", "OBJECT_ID": "1993-036BHY", "EPOCH": "2025-12-10T18:04:20.469216", "MEAN_MOTION": 14.12686618, "ECCENTRICITY": 0.01605026, "INCLINATION": 74.0123, "RA_OF_ASC_NODE": 160.2425, "ARG_OF_PERICENTER": 312.4867, "MEAN_ANOMALY": 59.8736, "EPHEMERIS_TYPE": 0, "CLASSIFICATION_TYPE": "U", "NORAD_CAT_ID": 37284, "ELEMENT_SET_NO": 999, "REV_AT_EPOCH": 59147, "BSTAR": 0.001592138, "MEAN_MOTION_DOT": 3.31e-05, "MEAN_MOTION_DDOT": 0}, "tle": {"line1": "1 37284U 93036BHY 25344.75301469  .00003310  00000+0  15921-2 0  9994", "line2": "2 37284  74.0123 160.2425 0160502 312.4867  59.8736 14.12686618591475"}}, "geometry": {"type": "Point", "coordinates": [-166.85933289285552, 63.821044769887784]}}, {"type": "Feature", "properties": {"norad_id": 37292, "name": "COSMOS 2251 DEB", "group": "cosmos-2251-debris", "lat": -23.844401469389375, "lon": -122.27963487714274, "alt_km": 1020.0812855093163, "timestamp": "2025-12-12T07:43:20.913489+00:00", "meta": {"OBJECT_NAME": "COSMOS 2251 DEB", "OBJECT_ID": "1993-036BJG", "EPOCH": "2025-12-02T14:04:30.366912", "MEAN_MOTION": 14.03226454, "ECCENTRICITY": 0.02102512, "INCLINATION": 74.129, "RA_OF_ASC_NODE": 67.3453, "ARG_OF_PERICENTER": 73.1105, "MEAN_ANOMALY": 289.2966, "EPHEMERIS_TYPE": 0, "CLASSIFICATION_TYPE": "U", "NORAD_CAT_ID": 37292, "ELEMENT_SET_NO": 999, "REV_AT_EPOCH": 59706, "BSTAR": 0.0022453288, "MEAN_MOTION_DOT": 4.236e-05, "MEAN_MOTION_DDOT": 0}, "tle": {"line1": "1 37292U 93036BJG 25336.58646258  .00004236  00000+0  22453-2 0  9999", "line2": "2 37292  74.1290  67.3453 0210251  73.1105 289.2966 14.03226454597064"}}, "geometry": {"type": "Point", "coordinates": [-122.27963487714274, -23.844401469389375]}}, {"type": "Feature", "properties": {"norad_id": 37295, "name": "COSMOS 2251 DEB", "group": "cosmos-2251-debris", "lat": 23.47840142939744, "lon": -70.41239430116354, "alt_km": 668.6200069176593, "timestamp": "2025-12-12T07:43:20.913499+00:00", "meta": {"OBJECT_NAME": "COSMOS 2251 DEB", "OBJECT_ID": "1993-036BJK", "EPOCH": "2025-12-10T06:27:05.450112", "MEAN_MOTION": 14.65213033, "ECCENTRICITY": 0.0043773, "INCLINATION": 74.0068, "RA_OF_ASC_NODE": 286.3868, "ARG_OF_PERICENTER": 106.4238, "MEAN_ANOMALY": 254.1748, "EPHEMERIS_TYPE": 0, "CLASSIFICATION_TYPE": "U", "NORAD_CAT_ID": 37295, "ELEMENT_SET_NO": 999, "REV_AT_EPOCH": 82268, "BSTAR": 0.00088834, "MEAN_MOTION_DOT": 4.823e-05, "MEAN_MOTION_DDOT": 0}, "tle": {"line1": "1 37295U 93036BJK 25344.26881308  .00004823  00000+0  88834-3 0  9991", "line2": "2 37295  74.0068 286.3868 0043773 106.4238 254.1748 14.65213033822687"}}, "geometry": {"type": "Point", "coordinates": [-70.41239430116354, 23.47840142939744]}}, {"type": "Feature", "properties": {"norad_id": 37305, "name": "COSMOS 2251 DEB", "group": "cosmos-2251-debris", "lat": -29.110434680054226, "lon": 120.56560927377242, "alt_km": 749.7471852194631, "timestamp": "2025-12-12T07:43:20.913509+00:00", "meta": {"OBJECT_NAME": "COSMOS 2251 DEB", "OBJECT_ID": "1993-036BJV", "EPOCH": "2025-12-10T14:37:05.458080", "MEAN_MOTION": 14.36123744, "ECCENTRICITY": 0.005028, "INCLINATION": 73.8703, "RA_OF_ASC_NODE": 294.4681, "ARG_OF_PERICENTER": 255.1941, "MEAN_ANOMALY": 104.3638, "EPHEMERIS_TYPE": 0, "CLASSIFICATION_TYPE": "U", "NORAD_CAT_ID": 37305, "ELEMENT_SET_NO": 999, "REV_AT_EPOCH": 66836, "BSTAR": 0.0011247, "MEAN_MOTION_DOT": 3.297e-05, "MEAN_MOTION_DDOT": 0}, "tle": {"line1": "1 37305U 93036BJV 25344.60909095  .00003297  00000+0  11247-2 0  9992", "line2": "2 37305  73.8703 294.4681 0050280 255.1941 104.3638 14.36123744668363"}}, "geometry": {"type": "Point", "coordinates": [120.56560927377242, -29.110434680054226]}}, {"type": "Feature", "properties": {"norad_id": 37312, "name": "COSMOS 2251 DEB", "group": "cosmos-2251-debris", "lat": -54.670835249495845, "lon": 48.79023595576213, "alt_km": 740.4909208655454, "timestamp": "2025-12-12T07:43:20.913520+00:00", "meta": {"OBJECT_NAME": "COSMOS 2251 DEB", "OBJECT_ID": "1993-036BKC", "EPOCH": "2025-12-09T00:35:23.995392", "MEAN_MOTION": 14.46107555, "ECCENTRICITY": 0.00182852, "INCLINATION": 74.0311, "RA_OF_ASC_NODE": 211.115, "ARG_OF_PERICENTER": 314.7028, "MEAN_ANOMALY": 45.264, "EPHEMERIS_TYPE": 0, "CLASSIFICATION_TYPE": "U", "NORAD_CAT_ID": 37312, "ELEMENT_SET_NO": 999, "REV_AT_EPOCH": 86110, "BSTAR": 0.00057614872, "MEAN_MOTION_DOT": 2.035e-05, "MEAN_MOTION_DDOT": 0}, "tle": {"line1": "1 37312U 93036BKC 25343.02458328  .00002035  00000+0  57615-3 0  9992", "line2": "2 37312  74.0311 211.1150 0018285 314.7028  45.2640 14.46107555861109"}}, "geometry": {"type": "Point", "coordinates": [48.79023595576213, -54.670835249495845]}}, {"type": "Feature", "properties": {"norad_id": 37316, "name": "COSMOS 2251 DEB", "group": "cosmos-2251-debris", "lat": 3.3556303244814205, "lon": 22.8771046429919, "alt_km": 585.119342369575, "timestamp": "2025-12-12T07:43:20.913530+00:00", "meta": {"OBJECT_NAME": "COSMOS 2251 DEB", "OBJECT_ID": "1993-036BKG", "EPOCH": "2025-12-10T20:21:36.803232", "MEAN_MOTION": 14.94359882, "ECCENTRICITY": 0.0029452, "INCLINATION": 74.02, "RA_OF_ASC_NODE": 24.8845, "ARG_OF_PERICENTER": 93.8539, "MEAN_ANOMALY": 266.6013, "EPHEMERIS_TYPE": 0, "CLASSIFICATION_TYPE": "U", "NORAD_CAT_ID": 37316, "ELEMENT_SET_NO": 999, "REV_AT_EPOCH": 86115, "BSTAR": 0.0030338, "MEAN_MOTION_DOT": 0.00033042, "MEAN_MOTION_DDOT": 0}, "tle": {"line1": "1 37316U 93036BKG 25344.84834263  .00033042  00000+0  30338-2 0  9997", "line2": "2 37316  74.0200  24.8845 0029452  93.8539 266.6013 14.94359882861153"}}, "geometry": {"type": "Point", "coordinates": [22.8771046429919, 3.3556303244814205]}}, {"type": "Feature", "properties": {"norad_id": 37320, "name": "COSMOS 2251 DEB", "group": "cosmos-2251-debris", "lat": 17.19530997694136, "lon": 33.90534944318407, "alt_km": 659.9216297219509, "timestamp": "2025-12-12T07:43:20.913541+00:00", "meta": {"OBJECT_NAME": "COSMOS 2251 DEB", "OBJECT_ID": "1993-036BKL", "EPOCH": "2025-12-11T08:15:28.693440", "MEAN_MOTION": 14.78755707, "ECCENTRICITY": 0.00469304, "INCLINATION": 74.0456, "RA_OF_ASC_NODE": 220.9045, "ARG_OF_PERICENTER": 308.1681, "MEAN_ANOMALY": 51.527, "EPHEMERIS_TYPE": 0, "CLASSIFICATION_TYPE": "U", "NORAD_CAT_ID": 37320, "ELEMENT_SET_NO": 999, "REV_AT_EPOCH": 66126, "BSTAR": 0.0016772012, "MEAN_MOTION_DOT": 0.00012539, "MEAN_MOTION_DDOT": 0}, "tle": {"line1": "1 37320U 93036BKL 25345.34408210  .00012539  00000+0  16772-2 0  9991", "line2": "2 37320  74.0456 220.9045 0046930 308.1681  51.5270 14.78755707661266"}}, "geometry": {"type": "Point", "coordinates": [33.90534944318407, 17.19530997694136]}}, {"type": "Feature", "properties": {"norad_id": 37326, "name": "COSMOS 2251 DEB", "group": "cosmos-2251-debris", "lat": 32.12756848862559, "lon": -14.142921910912568, "alt_km": 673.1429767654481, "timestamp": "2025-12-12T07:43:20.913552+00:00", "meta": {"OBJECT_NAME": "COSMOS 2251 DEB", "OBJECT_ID": "1993-036BKS", "EPOCH": "2025-12-10T07:55:46.181568", "MEAN_MOTION": 14.61555954, "ECCENTRICITY": 0.00548149, "INCLINATION": 74.0262, "RA_OF_ASC_NODE": 339.3048, "ARG_OF_PERICENTER": 109.0704, "MEAN_ANOMALY": 251.641, "EPHEMERIS_TYPE": 0, "CLASSIFICATION_TYPE": "U", "NORAD_CAT_ID": 37326, "ELEMENT_SET_NO": 999, "REV_AT_EPOCH": 85448, "BSTAR": 0.00074359922, "MEAN_MOTION_DOT": 3.743e-05, "MEAN_MOTION_DDOT": 0}, "tle": {"line1": "1 37326U 93036BKS 25344.33039562  .00003743  00000+0  74360-3 0  9990", "line2": "2 37326  74.0262 339.3048 0054814 109.0704 251.6410 14.61555954854480"}}, "geometry": {"type": "Point", "coordinates": [-14.142921910912568, 32.12756848862559]}}, {"type": "Feature", "properties": {"norad_id": 37330, "name": "COSMOS 2251 DEB", "group": "cosmos-2251-debris", "lat": 31.83342489691995, "lon": -53.86505959848491, "alt_km": 706.8993101443102, "timestamp": "2025-12-12T07:43:20.913562+00:00", "meta": {"OBJECT_NAME": "COSMOS 2251 DEB", "OBJECT_ID": "1993-036BKW", "EPOCH": "2025-12-11T05:14:55.753440", "MEAN_MOTION": 14.59532151, "ECCENTRICITY": 0.00570619, "INCLINATION": 74.0184, "RA_OF_ASC_NODE": 297.9909, "ARG_OF_PERICENTER": 146.9563, "MEAN_ANOMALY": 213.519, "EPHEMERIS_TYPE": 0, "CLASSIFICATION_TYPE": "U", "NORAD_CAT_ID": 37330, "ELEMENT_SET_NO": 999, "REV_AT_EPOCH": 86346, "BSTAR": 0.00048234262, "MEAN_MOTION_DOT": 2.314e-05, "MEAN_MOTION_DDOT": 0}, "tle": {"line1": "1 37330U 93036BKW 25345.21870085  .00002314  00000+0  48234-3 0  9990", "line2": "2 37330  74.0184 297.9909 0057061 146.9563 213.5190 14.59532151863464"}}, "geometry": {"type": "Point", "coordinates": [-53.86505959848491, 31.83342489691995]}}]}